CCSDS_OMM_VERS = 2.0
CREATION_DATE  = 
ORIGINATOR     = 

OBJECT_NAME    = ATLAS CENTAUR R/B
OBJECT_ID      = 1972-065B
CENTER_NAME    = EARTH
REF_FRAME      = TEME
TIME_SYSTEM    = UTC
MEAN_ELEMENT_THEORY = SGP/SGP4

EPOCH          = 2026-02-02T15:00:27.347328
MEAN_MOTION    = 14.77579192
ECCENTRICITY   = .00331579
INCLINATION    = 35.0005
RA_OF_ASC_NODE = 151.2251
ARG_OF_PERICENTER = 74.6424
MEAN_ANOMALY   = 285.7937

EPHEMERIS_TYPE = 0
CLASSIFICATION_TYPE = U
NORAD_CAT_ID   = 6155
ELEMENT_SET_NO = 999
REV_AT_EPOCH   = 83607
BSTAR          = .21000609E-3
MEAN_MOTION_DOT = .1514E-4
MEAN_MOTION_DDOT = 0

CCSDS_OMM_VERS = 2.0
CREATION_DATE  = 
ORIGINATOR     = 

OBJECT_NAME    = SL-8 R/B
OBJECT_ID      = 1975-112B
CENTER_NAME    = EARTH
REF_FRAME      = TEME
TIME_SYSTEM    = UTC
MEAN_ELEMENT_THEORY = SGP/SGP4

EPOCH          = 2026-02-03T03:22:23.348928
MEAN_MOTION    = 14.38185921
ECCENTRICITY   = .0015674
INCLINATION    = 74.0596
RA_OF_ASC_NODE = 82.4719
ARG_OF_PERICENTER = 187.1526
MEAN_ANOMALY   = 172.9407

EPHEMERIS_TYPE = 0
CLASSIFICATION_TYPE = U
NORAD_CAT_ID   = 8459
ELEMENT_SET_NO = 999
REV_AT_EPOCH   = 62690
BSTAR          = .80942E-4
MEAN_MOTION_DOT = .22E-5
MEAN_MOTION_DDOT = 0

CCSDS_OMM_VERS = 2.0
CREATION_DATE  = 
ORIGINATOR     = 

OBJECT_NAME    = SL-3 R/B
OBJECT_ID      = 1977-057B
CENTER_NAME    = EARTH
REF_FRAME      = TEME
TIME_SYSTEM    = UTC
MEAN_ELEMENT_THEORY = SGP/SGP4

EPOCH          = 2026-02-03T03:11:15.368064
MEAN_MOTION    = 15.44469913
ECCENTRICITY   = .0008311
INCLINATION    = 97.5719
RA_OF_ASC_NODE = 204.5709
ARG_OF_PERICENTER = 53.1979
MEAN_ANOMALY   = 307.0030

EPHEMERIS_TYPE = 0
CLASSIFICATION_TYPE = U
NORAD_CAT_ID   = 10114
ELEMENT_SET_NO = 999
REV_AT_EPOCH   = 66299
BSTAR          = .30839E-3
MEAN_MOTION_DOT = .14213E-3
MEAN_MOTION_DDOT = 0

CCSDS_OMM_VERS = 2.0
CREATION_DATE  = 
ORIGINATOR     = 

OBJECT_NAME    = SEASAT 1
OBJECT_ID      = 1978-064A
CENTER_NAME    = EARTH
REF_FRAME      = TEME
TIME_SYSTEM    = UTC
MEAN_ELEMENT_THEORY = SGP/SGP4

EPOCH          = 2026-02-02T23:29:31.724160
MEAN_MOTION    = 14.46129732
ECCENTRICITY   = .0001448
INCLINATION    = 108.0163
RA_OF_ASC_NODE = 52.6535
ARG_OF_PERICENTER = 290.8569
MEAN_ANOMALY   = 69.2421

EPHEMERIS_TYPE = 0
CLASSIFICATION_TYPE = U
NORAD_CAT_ID   = 10967
ELEMENT_SET_NO = 999
REV_AT_EPOCH   = 50149
BSTAR          = .12809E-3
MEAN_MOTION_DOT = .32E-5
MEAN_MOTION_DDOT = 0

CCSDS_OMM_VERS = 2.0
CREATION_DATE  = 
ORIGINATOR     = 

OBJECT_NAME    = SL-14 R/B
OBJECT_ID      = 1979-011B
CENTER_NAME    = EARTH
REF_FRAME      = TEME
TIME_SYSTEM    = UTC
MEAN_ELEMENT_THEORY = SGP/SGP4

EPOCH          = 2026-02-02T12:03:22.102560
MEAN_MOTION    = 14.91861206
ECCENTRICITY   = .00163038
INCLINATION    = 82.5261
RA_OF_ASC_NODE = 129.9554
ARG_OF_PERICENTER = 169.9426
MEAN_ANOMALY   = 190.2124

EPHEMERIS_TYPE = 0
CLASSIFICATION_TYPE = U
NORAD_CAT_ID   = 11267
ELEMENT_SET_NO = 999
REV_AT_EPOCH   = 52353
BSTAR          = .73331301E-4
MEAN_MOTION_DOT = .768E-5
MEAN_MOTION_DDOT = 0

CCSDS_OMM_VERS = 2.0
CREATION_DATE  = 
ORIGINATOR     = 

OBJECT_NAME    = SL-8 R/B
OBJECT_ID      = 1979-089B
CENTER_NAME    = EARTH
REF_FRAME      = TEME
TIME_SYSTEM    = UTC
MEAN_ELEMENT_THEORY = SGP/SGP4

EPOCH          = 2026-02-02T13:55:15.538080
MEAN_MOTION    = 14.42327077
ECCENTRICITY   = .0016303
INCLINATION    = 74.0695
RA_OF_ASC_NODE = 156.0313
ARG_OF_PERICENTER = 333.4259
MEAN_ANOMALY   = 26.6060

EPHEMERIS_TYPE = 0
CLASSIFICATION_TYPE = U
NORAD_CAT_ID   = 11574
ELEMENT_SET_NO = 999
REV_AT_EPOCH   = 43104
BSTAR          = .10178431E-3
MEAN_MOTION_DOT = .31E-5
MEAN_MOTION_DDOT = 0

CCSDS_OMM_VERS = 2.0
CREATION_DATE  = 
ORIGINATOR     = 

OBJECT_NAME    = SL-14 R/B
OBJECT_ID      = 1980-005B
CENTER_NAME    = EARTH
REF_FRAME      = TEME
TIME_SYSTEM    = UTC
MEAN_ELEMENT_THEORY = SGP/SGP4

EPOCH          = 2026-02-02T08:35:33.276192
MEAN_MOTION    = 14.90879168
ECCENTRICITY   = .00141522
INCLINATION    = 82.5170
RA_OF_ASC_NODE = 340.7399
ARG_OF_PERICENTER = 283.1897
MEAN_ANOMALY   = 76.7743

EPHEMERIS_TYPE = 0
CLASSIFICATION_TYPE = U
NORAD_CAT_ID   = 11672
ELEMENT_SET_NO = 999
REV_AT_EPOCH   = 47122
BSTAR          = .78648179E-4
MEAN_MOTION_DOT = .801E-5
MEAN_MOTION_DDOT = 0

CCSDS_OMM_VERS = 2.0
CREATION_DATE  = 
ORIGINATOR     = 

OBJECT_NAME    = SL-8 R/B
OBJECT_ID      = 1981-003B
CENTER_NAME    = EARTH
REF_FRAME      = TEME
TIME_SYSTEM    = UTC
MEAN_ELEMENT_THEORY = SGP/SGP4

EPOCH          = 2026-02-03T03:37:20.155872
MEAN_MOTION    = 15.09661572
ECCENTRICITY   = .0264535
INCLINATION    = 82.9400
RA_OF_ASC_NODE = 321.9287
ARG_OF_PERICENTER = 299.3951
MEAN_ANOMALY   = 58.1101

EPHEMERIS_TYPE = 0
CLASSIFICATION_TYPE = U
NORAD_CAT_ID   = 12139
ELEMENT_SET_NO = 999
REV_AT_EPOCH   = 30946
BSTAR          = .62575E-3
MEAN_MOTION_DOT = .23565E-3
MEAN_MOTION_DDOT = 0

CCSDS_OMM_VERS = 2.0
CREATION_DATE  = 
ORIGINATOR     = 

OBJECT_NAME    = SL-3 R/B
OBJECT_ID      = 1981-046B
CENTER_NAME    = EARTH
REF_FRAME      = TEME
TIME_SYSTEM    = UTC
MEAN_ELEMENT_THEORY = SGP/SGP4

EPOCH          = 2026-02-03T02:54:29.755008
MEAN_MOTION    = 15.41005939
ECCENTRICITY   = .0020412
INCLINATION    = 81.2351
RA_OF_ASC_NODE = 331.2123
ARG_OF_PERICENTER = 135.2491
MEAN_ANOMALY   = 225.0402

EPHEMERIS_TYPE = 0
CLASSIFICATION_TYPE = U
NORAD_CAT_ID   = 12465
ELEMENT_SET_NO = 999
REV_AT_EPOCH   = 43310
BSTAR          = .3286E-3
MEAN_MOTION_DOT = .13687E-3
MEAN_MOTION_DDOT = 0

CCSDS_OMM_VERS = 2.0
CREATION_DATE  = 
ORIGINATOR     = 

OBJECT_NAME    = SL-3 R/B
OBJECT_ID      = 1981-103B
CENTER_NAME    = EARTH
REF_FRAME      = TEME
TIME_SYSTEM    = UTC
MEAN_ELEMENT_THEORY = SGP/SGP4

EPOCH          = 2026-02-03T02:33:05.349024
MEAN_MOTION    = 15.20948271
ECCENTRICITY   = .0014093
INCLINATION    = 81.1559
RA_OF_ASC_NODE = 253.9963
ARG_OF_PERICENTER = 44.6562
MEAN_ANOMALY   = 315.5801

EPHEMERIS_TYPE = 0
CLASSIFICATION_TYPE = U
NORAD_CAT_ID   = 12904
ELEMENT_SET_NO = 999
REV_AT_EPOCH   = 96797
BSTAR          = .21875E-3
MEAN_MOTION_DOT = .4879E-4
MEAN_MOTION_DDOT = 0

CCSDS_OMM_VERS = 2.0
CREATION_DATE  = 
ORIGINATOR     = 

OBJECT_NAME    = SL-3 R/B
OBJECT_ID      = 1982-013B
CENTER_NAME    = EARTH
REF_FRAME      = TEME
TIME_SYSTEM    = UTC
MEAN_ELEMENT_THEORY = SGP/SGP4

EPOCH          = 2026-02-03T03:06:12.483360
MEAN_MOTION    = 15.21623994
ECCENTRICITY   = .0021859
INCLINATION    = 81.1733
RA_OF_ASC_NODE = 201.2605
ARG_OF_PERICENTER = 297.4039
MEAN_ANOMALY   = 62.4968

EPHEMERIS_TYPE = 0
CLASSIFICATION_TYPE = U
NORAD_CAT_ID   = 13068
ELEMENT_SET_NO = 999
REV_AT_EPOCH   = 39909
BSTAR          = .23158E-3
MEAN_MOTION_DOT = .5287E-4
MEAN_MOTION_DDOT = 0

CCSDS_OMM_VERS = 2.0
CREATION_DATE  = 
ORIGINATOR     = 

OBJECT_NAME    = SL-3 R/B
OBJECT_ID      = 1982-039B
CENTER_NAME    = EARTH
REF_FRAME      = TEME
TIME_SYSTEM    = UTC
MEAN_ELEMENT_THEORY = SGP/SGP4

EPOCH          = 2026-02-03T03:10:11.266176
MEAN_MOTION    = 15.09885093
ECCENTRICITY   = .0030075
INCLINATION    = 81.1623
RA_OF_ASC_NODE = 255.7918
ARG_OF_PERICENTER = 77.5061
MEAN_ANOMALY   = 282.9526

EPHEMERIS_TYPE = 0
CLASSIFICATION_TYPE = U
NORAD_CAT_ID   = 13154
ELEMENT_SET_NO = 999
REV_AT_EPOCH   = 37642
BSTAR          = .13653E-3
MEAN_MOTION_DOT = .2258E-4
MEAN_MOTION_DDOT = 0

