ATLAS CENTAUR R/B       
1 06155U 72065B   26033.62531652  .00001514  00000+0  21001-3 0  9998
2 06155  35.0005 151.2251 0033157  74.6424 285.7937 14.77579192836072
SL-8 R/B                
1 08459U 75112B   26034.14054802  .00000220  00000+0  80942-4 0  9991
2 08459  74.0596  82.4719 0015674 187.1526 172.9407 14.38185921626908
SL-3 R/B                
1 10114U 77057B   26034.13281676  .00014213  00000+0  30839-3 0  9998
2 10114  97.5719 204.5709 0008311  53.1979 307.0030 15.44469913662992
SEASAT 1                
1 10967U 78064A   26033.97883940  .00000320  00000+0  12809-3 0  9997
2 10967 108.0163  52.6535 0001448 290.8569  69.2421 14.46129732501498
SL-14 R/B               
1 11267U 79011B   26033.50233915  .00000768  00000+0  73331-4 0  9998
2 11267  82.5261 129.9554 0016303 169.9426 190.2124 14.91861206523533
SL-8 R/B                
1 11574U 79089B   26033.58004095  .00000310  00000+0  10178-3 0  9999
2 11574  74.0695 156.0313 0016303 333.4259  26.6060 14.42327077431041
SL-14 R/B               
1 11672U 80005B   26033.35802403  .00000801  00000+0  78648-4 0  9994
2 11672  82.5170 340.7399 0014152 283.1897  76.7743 14.90879168471221
SL-8 R/B                
1 12139U 81003B   26034.15092773  .00023565  00000+0  62575-3 0  9995
2 12139  82.9400 321.9287 0264535 299.3951  58.1101 15.09661572309466
SL-3 R/B                
1 12465U 81046B   26034.12117772  .00013687  00000+0  32860-3 0  9996
2 12465  81.2351 331.2123 0020412 135.2491 225.0402 15.41005939433102
SL-3 R/B                
1 12904U 81103B   26034.10631191  .00004879  00000+0  21875-3 0  9999
2 12904  81.1559 253.9963 0014093  44.6562 315.5801 15.20948271967978
SL-3 R/B                
1 13068U 82013B   26034.12931115  .00005287  00000+0  23158-3 0  9993
2 13068  81.1733 201.2605 0021859 297.4039  62.4968 15.21623994399095
SL-3 R/B                
1 13154U 82039B   26034.13207484  .00002258  00000+0  13653-3 0  9997
2 13154  81.1623 255.7918 0030075  77.5061 282.9526 15.09885093376429
